{"type":"FeatureCollection", "features": [
{"type":"Feature","geometry":{"type":"Polygon","coordinates":[[[93.195,23.055],[93.36,23.33],[93.39,23.495],[93.395,23.925],[93.255,24.02],[93.205,24.045],[92.975,24.115],[93.01,24.415],[92.895,24.39],[92.76,24.515],[92.53,24.18],[92.42,24.25],[92.295,24.245],[92.265,23.725],[92.4,23.265],[92.37,22.935],[92.51,22.74],[92.605,22.125],[92.855,22.065],[93.16,22.18],[93.095,22.785],[93.125,23.005],[93.195,23.055]]]},"properties":{"st_code":"15","st_nm":"Mizoram"}},
{"type":"Feature","geometry":{"type":"Polygon","coordinates":[[[80.25,12.86],[80.3,13.14],[80.27,13.565],[80.035,13.54],[79.945,13.365],[79.285,13.125],[79.23,13.16],[78.62,12.99],[78.605,12.845],[78.41,12.625],[78.23,12.76],[77.865,12.87],[77.83,12.865],[77.6,12.67],[77.47,12.245],[77.745,12.155],[77.675,11.95],[77.295,11.81],[76.91,11.795],[76.85,11.595],[76.42,11.67],[76.235,11.525],[76.44,11.2],[76.705,11.24],[76.655,10.94],[76.905,10.78],[76.835,10.34],[76.89,10.26],[77.05,10.26],[77.09,10.315],[77.29,10.23],[77.27,10.12],[77.165,9.61],[77.405,9.525],[77.34,9.42],[77.28,9.3],[77.205,9.07],[77.255,8.88],[77.2,8.77],[77.27,8.58],[77.1,8.29],[77.59,8.14],[77.97,8.335],[78.145,8.5],[78.17,8.885],[78.385,9.095],[79.065,9.3],[78.9,9.47],[79.115,9.85],[79.225,10.135],[79.47,10.315],[79.87,10.36],[79.85,10.825],[79.725,10.93],[79.75,10.995],[79.85,10.985],[79.815,11.425],[79.81,11.845],[79.685,11.88],[79.84,11.955],[80.01,12.255],[80.25,12.86]]]},"properties":{"st_code":"33","st_nm":"Tamil Nadu"}},
{"type":"Feature","geometry":{"type":"Polygon","coordinates":[[[75.985,21.37],[76.385,21.075],[76.66,21.28],[76.78,21.56],[77.06,21.715],[77.48,21.77],[77.575,21.525],[78.03,21.42],[78.345,21.59],[78.435,21.495],[78.9,21.5],[79.235,21.72],[79.51,21.595],[79.54,21.54],[79.92,21.525],[80.27,21.62],[80.66,21.335],[80.845,21.835],[81.045,22.24],[81.195,22.49],[81.475,22.49],[81.73,22.67],[81.73,22.675],[82.125,23.105],[81.985,23.415],[81.605,23.885],[82.21,23.855],[82.5,23.785],[82.695,23.92],[82.815,23.96],[82.8,24.575],[82.525,24.675],[82.3,24.605],[82.095,24.815],[81.54,25.19],[81.12,24.905],[80.715,25.065],[80.48,24.975],[80.265,25.025],[80.105,25.35],[79.675,25.12],[79.28,25.325],[79.325,25.15],[78.88,25.16],[78.56,25.215],[78.64,25.07],[78.985,24.44],[78.99,24.415],[78.805,24.18],[78.27,24.45],[78.19,24.84],[78.375,25.1],[78.445,25.12],[78.39,25.205],[78.45,25.57],[78.66,25.56],[78.885,25.915],[78.94,25.95],[79.135,26.44],[78.78,26.77],[78.545,26.765],[78.22,26.83],[77.375,26.365],[77.12,26.215],[76.85,26.03],[76.545,25.84],[76.595,25.41],[77.085,25.335],[77.31,25.08],[76.875,25.04],[77.07,24.555],[76.845,24.435],[76.88,24.13],[76.215,24.21],[75.69,23.745],[75.46,23.92],[75.835,24.055],[75.73,24.395],[75.92,24.545],[75.785,24.76],[75.55,24.705],[75.185,24.75],[75.35,25.02],[75.19,25.035],[74.995,24.695],[74.695,24.485],[74.91,24.21],[74.94,23.765],[74.77,23.545],[74.735,23.22],[74.32,23.06],[74.38,22.635],[74.06,22.55],[74.19,22.32],[74.145,21.95],[74.435,22.03],[74.505,21.725],[74.775,21.615],[75.21,21.41],[75.61,21.39],[75.985,21.37]]]},"properties":{"st_code":"23","st_nm":"Madhya Pradesh"}},
{"type":"Feature","geometry":{"type":"Polygon","coordinates":[[[80.56,20.825],[80.465,21.175],[80.66,21.335],[80.27,21.62],[79.92,21.525],[79.54,21.54],[79.51,21.595],[79.235,21.72],[78.9,21.5],[78.435,21.495],[78.345,21.59],[78.03,21.42],[77.575,21.525],[77.48,21.77],[77.06,21.715],[76.78,21.56],[76.66,21.28],[76.385,21.075],[75.985,21.37],[75.61,21.39],[75.21,21.41],[74.775,21.615],[74.505,21.725],[74.435,22.03],[74.145,21.95],[73.94,21.875],[73.98,21.52],[73.805,21.01],[73.85,21],[73.89,20.935],[73.94,20.84],[73.745,20.565],[73.475,20.72],[73.405,20.625],[73.415,20.205],[73.25,20.12],[73.21,20.12],[72.96,20.21],[72.775,20.13],[72.655,19.835],[72.8,19.305],[72.785,19.265],[72.835,18.865],[73.045,17.98],[73.29,17.115],[73.345,16.53],[73.51,15.935],[73.685,15.73],[74.12,15.65],[74.21,15.78],[74.345,15.765],[74.48,16.25],[74.315,16.555],[74.695,16.715],[75.09,16.95],[75.34,16.955],[75.665,16.98],[75.605,17.305],[76.075,17.335],[76.385,17.315],[76.43,17.645],[76.685,17.68],[76.74,17.9],[76.92,17.915],[77.265,18.425],[77.55,18.29],[77.74,18.555],[77.95,18.845],[77.795,19.075],[77.865,19.305],[78.195,19.315],[78.31,19.48],[78.305,19.91],[78.84,19.76],[78.935,19.55],[79.47,19.5],[79.805,19.58],[79.93,19.16],[79.915,18.825],[80.275,18.72],[80.27,18.945],[80.48,19.335],[80.85,19.365],[80.67,19.705],[80.47,19.825],[80.545,20.1],[80.625,20.33],[80.56,20.825]]]},"properties":{"st_code":"27","st_nm":"Maharashtra"}},
{"type":"Feature","geometry":{"type":"Polygon","coordinates":[[[82.34,20.875],[82.64,21.09],[83.19,21.14],[83.27,21.375],[83.485,21.645],[83.59,21.825],[83.54,22.045],[83.8,22.295],[84.01,22.53],[84.295,22.775],[84.04,23.17],[84.075,23.335],[84.015,23.635],[83.33,24.1],[83.205,23.92],[82.815,23.96],[82.695,23.92],[82.5,23.785],[82.21,23.855],[81.605,23.885],[81.985,23.415],[82.125,23.105],[81.73,22.675],[81.73,22.67],[81.475,22.49],[81.195,22.49],[81.045,22.24],[80.845,21.835],[80.66,21.335],[80.465,21.175],[80.56,20.825],[80.625,20.33],[80.545,20.1],[80.47,19.825],[80.67,19.705],[80.85,19.365],[80.48,19.335],[80.27,18.945],[80.275,18.72],[80.37,18.61],[80.705,18.44],[80.755,18.17],[80.98,18.165],[81.085,17.795],[81.395,17.82],[81.53,18.24],[81.9,18.66],[82.09,18.74],[82.205,19.12],[82.03,19.51],[82.065,19.79],[81.875,20.05],[82.02,20.05],[82.595,19.775],[82.72,19.99],[82.4,20.055],[82.44,20.435],[82.34,20.875]]]},"properties":{"st_code":"22","st_nm":"Chhattisgarh"}},
{"type":"Feature","geometry":{"type":"Polygon","coordinates":[[[72.75,21.06],[72.855,20.75],[72.885,20.46],[72.83,20.37],[72.775,20.13],[72.96,20.21],[73.045,20.325],[73.21,20.12],[73.25,20.12],[73.415,20.205],[73.405,20.625],[73.475,20.72],[73.745,20.565],[73.94,20.84],[73.89,20.935],[73.85,21],[73.805,21.01],[73.98,21.52],[73.94,21.875],[74.145,21.95],[74.19,22.32],[74.06,22.55],[74.38,22.635],[74.32,23.06],[73.98,23.34],[73.96,23.38],[73.625,23.45],[73.37,23.815],[73.38,23.905],[73.065,24.195],[73,24.48],[72.96,24.36],[72.875,24.365],[72.815,24.365],[72.685,24.465],[72.68,24.465],[72.565,24.49],[72.52,24.5],[72.52,24.495],[72.5,24.42],[72.5,24.415],[72.43,24.485],[72.405,24.515],[72.355,24.565],[72.34,24.61],[72.335,24.635],[72.285,24.63],[72.26,24.63],[72.25,24.625],[72.195,24.625],[72.165,24.625],[72.14,24.64],[72.085,24.69],[72.06,24.71],[71.995,24.695],[71.99,24.695],[71.915,24.675],[71.865,24.675],[71.79,24.675],[71.77,24.67],[71.735,24.66],[71.655,24.64],[71.61,24.675],[71.605,24.675],[71.58,24.675],[71.55,24.68],[71.54,24.68],[71.29,24.615],[71.285,24.615],[71.19,24.65],[71.11,24.675],[70.805,24.22],[70.575,24.42],[69.73,24.17],[69.595,24.295],[69.195,24.235],[68.765,24.295],[68.755,23.97],[68.34,23.965],[68.31,23.58],[68.635,23.17],[69.13,22.875],[69.65,22.795],[70.08,22.92],[70.31,23.215],[70.69,23.12],[70.495,22.935],[70.125,22.555],[69.755,22.42],[68.965,22.235],[69.395,21.89],[69.98,21.225],[70.24,20.99],[70.825,20.69],[70.92,20.74],[71,20.74],[71.205,20.795],[71.675,20.995],[72.115,21.2],[72.31,21.625],[72.245,21.995],[72.375,22.315],[72.945,22.295],[72.865,22.215],[72.565,22.18],[72.545,21.735],[72.735,21.475],[72.75,21.06]]]},"properties":{"st_code":"24","st_nm":"Gujarat"}},
{"type":"Feature","geometry":{"type":"Polygon","coordinates":[[[85.24,22.01],[85.03,22.12],[85.07,22.49],[84.43,22.35],[84.01,22.53],[83.8,22.295],[83.54,22.045],[83.59,21.825],[83.485,21.645],[83.27,21.375],[83.19,21.14],[82.64,21.09],[82.34,20.875],[82.44,20.435],[82.4,20.055],[82.72,19.99],[82.595,19.775],[82.02,20.05],[81.875,20.05],[82.065,19.79],[82.03,19.51],[82.205,19.12],[82.09,18.74],[81.9,18.66],[81.53,18.24],[81.395,17.82],[81.98,18.015],[82.32,18.045],[82.43,18.485],[82.775,18.34],[83.075,18.405],[83,18.61],[83.41,18.875],[83.35,19.02],[83.665,19.1],[83.755,18.91],[83.795,19.02],[83.89,18.815],[84.32,18.79],[84.425,18.95],[84.7,19.12],[85.17,19.47],[85.68,19.745],[86.37,19.98],[86.775,20.335],[86.805,20.735],[86.975,20.86],[86.86,21.215],[87.15,21.51],[87.485,21.615],[87.44,21.77],[87.245,21.965],[87.1,21.865],[86.73,22.215],[86.065,22.555],[85.965,22.485],[86.01,22.115],[85.685,22.06],[85.395,22.165],[85.24,22.01]]]},"properties":{"st_code":"21","st_nm":"Odisha"}},
{"type":"Feature","geometry":{"type":"Polygon","coordinates":[[[80.27,13.565],[80.13,14.23],[80.195,14.585],[80.04,15.01],[80.125,15.37],[80.42,15.8],[80.68,15.885],[80.83,15.705],[81.01,15.755],[81.215,16.21],[81.555,16.345],[81.715,16.31],[82.315,16.56],[82.32,17.06],[82.54,17.25],[83.16,17.56],[83.52,17.95],[83.665,18.08],[84.13,18.315],[84.765,19.075],[84.7,19.12],[84.425,18.95],[84.32,18.79],[83.89,18.815],[83.795,19.02],[83.755,18.91],[83.665,19.1],[83.35,19.02],[83.41,18.875],[83,18.61],[83.075,18.405],[82.775,18.34],[82.43,18.485],[82.32,18.045],[81.98,18.015],[81.395,17.82],[81.085,17.795],[80.91,17.64],[81.31,17.41],[80.94,17.22],[80.875,17.07],[80.505,17.07],[80.57,16.77],[80.055,16.97],[80.075,16.815],[79.68,16.695],[79.26,16.565],[79.21,16.355],[79.215,16.225],[78.925,16.125],[78.255,16.01],[78.25,15.97],[78.085,15.84],[77.515,15.93],[77.025,15.835],[77.155,15.14],[76.76,14.99],[76.765,14.6],[77.005,14.235],[77.005,14.2],[76.95,14.095],[77.04,13.935],[77.435,13.845],[77.455,13.685],[77.97,13.96],[78.125,13.785],[78.195,13.57],[78.585,13.275],[78.465,12.975],[78.23,12.76],[78.41,12.625],[78.605,12.845],[78.62,12.99],[79.23,13.16],[79.285,13.125],[79.945,13.365],[80.035,13.54],[80.27,13.565]]]},"properties":{"st_code":"37","st_nm":"Andhra Pradesh"}},
{"type":"Feature","geometry":{"type":"Polygon","coordinates":[[[77.46,16.885],[77.465,16.955],[77.38,17.225],[77.685,17.51],[77.445,17.585],[77.655,17.97],[77.6,18.275],[77.55,18.29],[77.265,18.425],[76.92,17.915],[76.74,17.9],[76.685,17.68],[76.43,17.645],[76.385,17.315],[76.075,17.335],[75.605,17.305],[75.665,16.98],[75.34,16.955],[75.09,16.95],[74.695,16.715],[74.315,16.555],[74.48,16.25],[74.345,15.765],[74.21,15.78],[74.12,15.65],[74.28,15.52],[74.25,15.49],[74.295,15.04],[74.085,14.9],[74.265,14.72],[74.585,13.925],[74.775,13.07],[74.87,12.76],[75.415,12.5],[75.415,12.29],[75.935,11.94],[76.115,11.98],[76.415,11.76],[76.42,11.67],[76.85,11.595],[76.91,11.795],[77.295,11.81],[77.675,11.95],[77.745,12.155],[77.47,12.245],[77.6,12.67],[77.83,12.865],[77.865,12.87],[78.23,12.76],[78.465,12.975],[78.585,13.275],[78.195,13.57],[78.125,13.785],[77.97,13.96],[77.455,13.685],[77.435,13.845],[77.04,13.935],[76.95,14.095],[77.005,14.2],[77.005,14.235],[76.765,14.6],[76.76,14.99],[77.155,15.14],[77.025,15.835],[77.515,15.93],[77.595,16.345],[77.29,16.41],[77.46,16.885]]]},"properties":{"st_code":"29","st_nm":"Karnataka"}},
{"type":"Feature","geometry":{"type":"Polygon","coordinates":[[[74.25,15.49],[74.28,15.52],[74.12,15.65],[73.685,15.73],[73.935,15.435],[74.085,14.9],[74.295,15.04],[74.25,15.49]]]},"properties":{"st_code":"30","st_nm":"Goa"}},
{"type":"Feature","geometry":{"type":"Polygon","coordinates":[[[76.42,11.67],[76.415,11.76],[76.115,11.98],[75.935,11.94],[75.415,12.29],[75.415,12.5],[74.87,12.76],[75.165,12.09],[75.555,11.7],[75.825,11.125],[75.96,10.685],[76.215,10.195],[76.28,9.79],[76.48,9.125],[76.68,8.775],[77.1,8.29],[77.27,8.58],[77.2,8.77],[77.255,8.88],[77.205,9.07],[77.28,9.3],[77.34,9.42],[77.405,9.525],[77.165,9.61],[77.27,10.12],[77.29,10.23],[77.09,10.315],[77.05,10.26],[76.89,10.26],[76.835,10.34],[76.905,10.78],[76.655,10.94],[76.705,11.24],[76.44,11.2],[76.235,11.525],[76.42,11.67]]]},"properties":{"st_code":"32","st_nm":"Kerala"}},
{"type":"Feature","geometry":{"type":"Polygon","coordinates":[[[79.805,19.58],[79.47,19.5],[78.935,19.55],[78.84,19.76],[78.305,19.91],[78.31,19.48],[78.195,19.315],[77.865,19.305],[77.795,19.075],[77.95,18.845],[77.74,18.555],[77.55,18.29],[77.6,18.275],[77.655,17.97],[77.445,17.585],[77.685,17.51],[77.38,17.225],[77.465,16.955],[77.46,16.885],[77.29,16.41],[77.595,16.345],[77.515,15.93],[78.085,15.84],[78.25,15.97],[78.255,16.01],[78.925,16.125],[79.215,16.225],[79.21,16.355],[79.26,16.565],[79.68,16.695],[80.075,16.815],[80.055,16.97],[80.57,16.77],[80.505,17.07],[80.875,17.07],[80.94,17.22],[81.31,17.41],[80.91,17.64],[81.085,17.795],[80.98,18.165],[80.755,18.17],[80.705,18.44],[80.37,18.61],[80.275,18.72],[79.915,18.825],[79.93,19.16],[79.805,19.58]]]},"properties":{"st_code":"36","st_nm":"Telangana"}},
{"type":"Feature","geometry":{"type":"Polygon","coordinates":[[[88.08,22.26],[88.185,22.185],[88.21,22.025],[88.145,21.955],[88.265,21.73],[88.445,21.92],[89.07,21.95],[89.055,22.13],[88.86,22.97],[88.71,23.23],[88.595,23.615],[88.7,24.095],[88.74,24.255],[88.135,24.51],[88.025,24.69],[88.395,24.97],[88.435,25.2],[88.91,25.18],[88.81,25.525],[88.445,25.595],[88.095,25.93],[88.35,26.22],[88.335,26.495],[88.4,26.645],[88.76,26.33],[89.35,26.01],[89.73,26.17],[89.845,26.385],[89.835,26.415],[89.85,26.7],[89.375,26.855],[89.09,26.84],[88.87,26.965],[88.72,27.14],[88.53,27.175],[88.425,27.07],[88.28,27.13],[88.04,27.22],[88.185,26.77],[88.11,26.55],[88.24,26.46],[88.28,26.33],[87.85,26.04],[87.825,25.89],[88.065,25.485],[87.71,25.26],[87.89,24.855],[87.84,24.745],[87.89,24.565],[87.64,24.255],[87.44,23.98],[87.235,24.025],[87.085,23.81],[86.8,23.835],[86.8,23.7],[86.485,23.635],[86.31,23.41],[85.885,23.485],[85.86,23.43],[85.885,23.165],[86.24,22.995],[86.56,22.715],[86.845,22.4],[86.73,22.215],[87.1,21.865],[87.245,21.965],[87.44,21.77],[87.485,21.615],[87.79,21.7],[87.955,21.83],[88.185,22.105],[88,22.245],[88.08,22.26]]]},"properties":{"st_code":"19","st_nm":"West Bengal"}},
{"type":"Feature","geometry":{"type":"Polygon","coordinates":[[[72.96,20.21],[73.21,20.12],[73.045,20.325],[72.96,20.21]]]},"properties":{"st_code":"26","st_nm":"Dadra and Nagar Haveli and Daman and Diu"}},
{"type":"Feature","geometry":{"type":"MultiPolygon","coordinates":[[[[79.685,11.88],[79.81,11.845],[79.84,11.955],[79.685,11.88]]],[[[79.725,10.93],[79.85,10.825],[79.85,10.985],[79.75,10.995],[79.725,10.93]]]]},"properties":{"st_code":"34","st_nm":"Puducherry"}},
{"type":"Feature","geometry":{"type":"Polygon","coordinates":[[[73.055,8.275],[73.02,8.275],[73.045,8.265],[73.055,8.275]]]},"properties":{"st_code":"31","st_nm":"Lakshadweep"}},
{"type":"Feature","geometry":{"type":"Polygon","coordinates":[[[95.135,27.815],[95.515,27.88],[95.52,27.885],[95.97,27.96],[95.775,27.735],[95.875,27.545],[95.635,27.23],[95.485,27.24],[95.375,27.095],[95.37,27.11],[95.195,27.035],[95.235,26.68],[95.495,26.815],[95.685,26.905],[96.02,27.18],[96.605,27.365],[97.165,27.14],[96.86,27.63],[97.255,27.9],[97.37,28.22],[96.665,28.46],[96.315,28.385],[96.325,28.51],[96.585,28.715],[96.52,28.965],[96.09,29.46],[95.27,29.05],[94.68,29.325],[94.185,29.04],[93.96,28.715],[93.34,28.64],[93.225,28.34],[92.8,28.2],[92.735,27.975],[92.47,27.815],[91.88,27.72],[92.015,27.49],[92.115,26.895],[92.36,26.925],[92.655,27.01],[93.06,26.92],[93.4,26.955],[93.7,26.995],[94.22,27.505],[94.265,27.52],[94.215,27.605],[94.46,27.555],[95.135,27.815]]]},"properties":{"st_code":"12","st_nm":"Arunachal Pradesh"}},
{"type":"Feature","geometry":{"type":"Polygon","coordinates":[[[95.485,27.24],[95.635,27.23],[95.875,27.545],[95.775,27.735],[95.97,27.96],[95.52,27.885],[95.515,27.88],[95.135,27.815],[94.46,27.555],[94.215,27.605],[94.265,27.52],[94.22,27.505],[93.7,26.995],[93.4,26.955],[93.06,26.92],[92.655,27.01],[92.36,26.925],[92.115,26.895],[91.705,26.815],[90.95,26.775],[90.335,26.865],[89.85,26.7],[89.835,26.415],[89.845,26.385],[89.73,26.17],[89.845,25.88],[89.87,25.475],[90.02,25.605],[90.12,25.96],[90.435,25.99],[91.025,25.885],[91.01,25.825],[91.335,25.84],[91.725,26.035],[92.175,26.075],[92.275,26.065],[92.15,25.67],[92.445,25.72],[92.66,25.57],[92.57,25.465],[92.79,25.285],[92.54,25.1],[92.425,25.03],[92.515,24.88],[92.215,24.51],[92.295,24.245],[92.42,24.25],[92.53,24.18],[92.76,24.515],[92.895,24.39],[93.01,24.415],[93.085,24.57],[93.175,24.8],[93.245,24.97],[93.47,25.305],[93.33,25.545],[93.515,25.675],[93.775,25.97],[93.955,25.97],[94.165,26.35],[94.315,26.46],[94.585,26.725],[94.735,26.75],[94.79,26.795],[94.925,26.95],[95.195,27.035],[95.37,27.11],[95.375,27.095],[95.485,27.24]]]},"properties":{"st_code":"18","st_nm":"Assam"}},
{"type":"Feature","geometry":{"type":"Polygon","coordinates":[[[95.125,26.35],[95.235,26.68],[95.195,27.035],[94.925,26.95],[94.79,26.795],[94.735,26.75],[94.585,26.725],[94.315,26.46],[94.165,26.35],[93.955,25.97],[93.775,25.97],[93.515,25.675],[93.33,25.545],[93.47,25.305],[93.805,25.465],[93.935,25.56],[94.19,25.55],[94.49,25.605],[94.675,25.445],[94.885,25.585],[95.015,25.89],[95.125,26.35]]]},"properties":{"st_code":"13","st_nm":"Nagaland"}},
{"type":"Feature","geometry":{"type":"Polygon","coordinates":[[[92.57,25.465],[92.66,25.57],[92.445,25.72],[92.15,25.67],[92.275,26.065],[92.175,26.075],[91.725,26.035],[91.335,25.84],[91.01,25.825],[91.025,25.885],[90.435,25.99],[90.12,25.96],[90.02,25.605],[89.87,25.475],[89.975,25.3],[90.235,25.205],[90.97,25.175],[91.355,25.235],[92.015,25.19],[92.2,25.125],[92.425,25.03],[92.54,25.1],[92.79,25.285],[92.57,25.465]]]},"properties":{"st_code":"17","st_nm":"Meghalaya"}},
{"type":"Feature","geometry":{"type":"Polygon","coordinates":[[[94.49,25.605],[94.19,25.55],[93.935,25.56],[93.805,25.465],[93.47,25.305],[93.245,24.97],[93.175,24.8],[93.085,24.57],[93.01,24.415],[92.975,24.115],[93.205,24.045],[93.255,24.02],[93.38,24.09],[93.74,24.005],[94.155,23.85],[94.255,24.115],[94.375,24.495],[94.63,24.755],[94.655,25.115],[94.675,25.445],[94.49,25.605]]]},"properties":{"st_code":"14","st_nm":"Manipur"}},
{"type":"Feature","geometry":{"type":"Polygon","coordinates":[[[91.805,23.515],[92.175,23.705],[92.265,23.725],[92.295,24.245],[92.215,24.51],[92.07,24.375],[91.925,24.11],[91.755,24.14],[91.47,24.06],[91.225,23.73],[91.32,23.275],[91.545,23],[91.76,23.265],[91.805,23.515]]]},"properties":{"st_code":"16","st_nm":"Tripura"}},
{"type":"Feature","geometry":{"type":"MultiPolygon","coordinates":[[[[92.755,12.175],[92.55,11.72],[92.75,11.61],[92.755,12.175]]],[[[92.875,12.33],[92.975,12.545],[92.84,13.39],[92.7,12.33],[92.875,12.33]]]]},"properties":{"st_code":"35","st_nm":"Andaman and Nicobar Islands"}},
{"type":"Feature","geometry":{"type":"Polygon","coordinates":[[[78.02,29.58],[77.82,29.675],[77.715,29.885],[77.96,30.24],[77.575,30.4],[77.58,30.38],[77.225,29.94],[77.15,29.69],[77.13,29.485],[77.155,29.295],[77.145,29.165],[77.215,28.855],[77.22,28.83],[77.34,28.61],[77.35,28.52],[77.5,28.205],[77.475,28.085],[77.53,27.925],[77.345,27.85],[77.285,27.8],[77.34,27.525],[77.645,27.24],[77.66,26.97],[77.455,26.745],[77.76,26.935],[78.22,26.83],[78.545,26.765],[78.78,26.77],[79.135,26.44],[78.94,25.95],[78.885,25.915],[78.66,25.56],[78.45,25.57],[78.39,25.205],[78.445,25.12],[78.375,25.1],[78.19,24.84],[78.27,24.45],[78.805,24.18],[78.99,24.415],[78.985,24.44],[78.64,25.07],[78.56,25.215],[78.88,25.16],[79.325,25.15],[79.28,25.325],[79.675,25.12],[80.105,25.35],[80.265,25.025],[80.48,24.975],[80.715,25.065],[81.12,24.905],[81.54,25.19],[82.095,24.815],[82.3,24.605],[82.525,24.675],[82.8,24.575],[82.815,23.96],[83.205,23.92],[83.33,24.1],[83.505,24.525],[83.525,24.55],[83.395,24.78],[83.35,25.185],[83.54,25.31],[83.78,25.4],[83.93,25.56],[84.32,25.67],[84.6,25.73],[84.47,25.88],[84.055,26.1],[84.155,26.375],[84.05,26.55],[84.42,26.63],[84.06,26.885],[83.91,27.275],[83.86,27.335],[83.395,27.48],[83.29,27.335],[82.73,27.485],[82.205,27.845],[81.74,27.955],[81.055,28.405],[80.555,28.69],[80.315,28.63],[80.065,28.835],[79.685,28.855],[79.425,28.895],[78.975,29.13],[78.76,29.265],[78.85,29.35],[78.925,29.44],[78.335,29.8],[78.02,29.58]]]},"properties":{"st_code":"09","st_nm":"Uttar Pradesh"}},
{"type":"Feature","geometry":{"type":"Polygon","coordinates":[[[75.67,28.52],[75.475,28.925],[75.53,28.97],[75.345,29.285],[75.24,29.26],[74.605,29.365],[74.525,29.94],[74.45,29.945],[74.3,29.955],[73.97,30.195],[73.4,29.945],[73.285,29.57],[72.945,29.03],[72.66,28.895],[72.3,28.67],[71.88,27.915],[70.76,27.72],[70.37,28.01],[70.025,27.56],[69.585,27.185],[69.51,26.745],[70.175,26.55],[70.14,26.155],[70.27,25.715],[70.675,25.675],[70.665,25.395],[70.89,25.15],[71.11,24.675],[71.19,24.65],[71.285,24.615],[71.29,24.615],[71.54,24.68],[71.55,24.68],[71.58,24.675],[71.605,24.675],[71.61,24.675],[71.655,24.64],[71.735,24.66],[71.77,24.67],[71.79,24.675],[71.865,24.675],[71.915,24.675],[71.99,24.695],[71.995,24.695],[72.06,24.71],[72.085,24.69],[72.14,24.64],[72.165,24.625],[72.195,24.625],[72.25,24.625],[72.26,24.63],[72.285,24.63],[72.335,24.635],[72.34,24.61],[72.355,24.565],[72.405,24.515],[72.43,24.485],[72.5,24.415],[72.5,24.42],[72.52,24.495],[72.52,24.5],[72.565,24.49],[72.68,24.465],[72.685,24.465],[72.815,24.365],[72.875,24.365],[72.96,24.36],[73,24.48],[73.065,24.195],[73.38,23.905],[73.37,23.815],[73.625,23.45],[73.96,23.38],[73.98,23.34],[74.32,23.06],[74.735,23.22],[74.77,23.545],[74.94,23.765],[74.91,24.21],[74.695,24.485],[74.995,24.695],[75.19,25.035],[75.35,25.02],[75.185,24.75],[75.55,24.705],[75.785,24.76],[75.92,24.545],[75.73,24.395],[75.835,24.055],[75.46,23.92],[75.69,23.745],[76.215,24.21],[76.88,24.13],[76.845,24.435],[77.07,24.555],[76.875,25.04],[77.31,25.08],[77.085,25.335],[76.595,25.41],[76.545,25.84],[76.85,26.03],[77.12,26.215],[77.375,26.365],[78.22,26.83],[77.76,26.935],[77.455,26.745],[77.66,26.97],[77.645,27.24],[77.34,27.525],[77.285,27.8],[76.975,27.655],[76.97,28.14],[76.855,28.22],[76.545,28.035],[76.31,28.18],[76.225,27.835],[76.075,27.84],[75.935,27.93],[76.055,28.22],[75.895,28.39],[75.67,28.52]]]},"properties":{"st_code":"08","st_nm":"Rajasthan"}},
{"type":"Feature","geometry":{"type":"Polygon","coordinates":[[[77.34,28.61],[77.22,28.83],[77.215,28.855],[76.94,28.8],[76.885,28.505],[77.175,28.405],[77.35,28.52],[77.34,28.61]]]},"properties":{"st_code":"07","st_nm":"Delhi"}},
{"type":"Feature","geometry":{"type":"Polygon","coordinates":[[[77.215,28.855],[77.145,29.165],[77.155,29.295],[77.13,29.485],[77.15,29.69],[77.225,29.94],[77.58,30.38],[77.21,30.49],[77.125,30.565],[77.025,30.75],[76.775,30.905],[76.84,30.755],[76.83,30.68],[76.905,30.46],[76.75,30.43],[76.645,30.15],[76.465,30.1],[76.215,29.84],[76.1,29.81],[75.945,29.73],[75.72,29.815],[75.46,29.805],[75.305,29.56],[75.19,29.845],[74.705,29.975],[74.525,29.94],[74.605,29.365],[75.24,29.26],[75.345,29.285],[75.53,28.97],[75.475,28.925],[75.67,28.52],[75.895,28.39],[76.055,28.22],[75.935,27.93],[76.075,27.84],[76.225,27.835],[76.31,28.18],[76.545,28.035],[76.855,28.22],[76.97,28.14],[76.975,27.655],[77.285,27.8],[77.345,27.85],[77.53,27.925],[77.475,28.085],[77.5,28.205],[77.35,28.52],[77.175,28.405],[76.885,28.505],[76.94,28.8],[77.215,28.855]]]},"properties":{"st_code":"06","st_nm":"Haryana"}},
{"type":"Feature","geometry":{"type":"Polygon","coordinates":[[[88.53,27.175],[88.72,27.14],[88.795,27.415],[88.845,27.995],[88.62,28.1],[88.205,27.94],[88.115,27.62],[88.04,27.22],[88.28,27.13],[88.425,27.07],[88.53,27.175]]]},"properties":{"st_code":"11","st_nm":"Sikkim"}},
{"type":"Feature","geometry":{"type":"Polygon","coordinates":[[[84.155,26.375],[84.055,26.1],[84.47,25.88],[84.6,25.73],[84.32,25.67],[83.93,25.56],[83.78,25.4],[83.54,25.31],[83.35,25.185],[83.395,24.78],[83.525,24.55],[83.505,24.525],[83.875,24.53],[84.01,24.64],[84.325,24.49],[84.495,24.29],[84.8,24.53],[85.09,24.37],[85.33,24.51],[85.375,24.555],[85.9,24.765],[86.055,24.78],[86.45,24.375],[86.61,24.61],[86.915,24.545],[87.05,24.625],[87.175,25.055],[87.48,25.195],[87.55,25.33],[87.71,25.26],[88.065,25.485],[87.825,25.89],[87.85,26.04],[88.28,26.33],[88.24,26.46],[88.11,26.55],[87.66,26.38],[87.16,26.405],[87.045,26.56],[86.725,26.425],[86.03,26.665],[85.815,26.6],[85.73,26.81],[85.255,26.755],[84.76,27.005],[84.62,27.34],[84.095,27.515],[83.86,27.335],[83.91,27.275],[84.06,26.885],[84.42,26.63],[84.05,26.55],[84.155,26.375]]]},"properties":{"st_code":"10","st_nm":"Bihar"}},
{"type":"Feature","geometry":{"type":"Polygon","coordinates":[[[87.84,24.745],[87.89,24.855],[87.71,25.26],[87.55,25.33],[87.48,25.195],[87.175,25.055],[87.05,24.625],[86.915,24.545],[86.61,24.61],[86.45,24.375],[86.055,24.78],[85.9,24.765],[85.375,24.555],[85.33,24.51],[85.09,24.37],[84.8,24.53],[84.495,24.29],[84.325,24.49],[84.01,24.64],[83.875,24.53],[83.505,24.525],[83.33,24.1],[84.015,23.635],[84.075,23.335],[84.04,23.17],[84.295,22.775],[84.01,22.53],[84.43,22.35],[85.07,22.49],[85.03,22.12],[85.24,22.01],[85.395,22.165],[85.685,22.06],[86.01,22.115],[85.965,22.485],[86.065,22.555],[86.73,22.215],[86.845,22.4],[86.56,22.715],[86.24,22.995],[85.885,23.165],[85.86,23.43],[85.885,23.485],[86.31,23.41],[86.485,23.635],[86.8,23.7],[86.8,23.835],[87.085,23.81],[87.235,24.025],[87.44,23.98],[87.64,24.255],[87.89,24.565],[87.84,24.745]]]},"properties":{"st_code":"20","st_nm":"Jharkhand"}},
{"type":"Feature","geometry":{"type":"Polygon","coordinates":[[[77.275,32.875],[77.74,32.97],[78.015,32.62],[78.4,32.525],[78.76,32.655],[79.115,32.385],[79.625,32.74],[79.375,33.085],[78.99,33.335],[79.105,33.615],[78.905,33.975],[79.355,34.035],[79.59,34.28],[79.505,34.475],[80.07,34.715],[80.29,35.605],[79.215,35.98],[78.665,35.86],[77.61,35.47],[77.43,35.655],[76.935,35.785],[76.8,36.045],[76.35,36.36],[75.75,36.59],[75.345,37.05],[74.92,36.905],[74.71,37.075],[73.7,36.685],[73.125,36.685],[72.99,36.455],[72.595,36.26],[72.535,35.915],[73.09,35.88],[73.405,35.565],[73.785,35.525],[73.795,35.245],[74.145,35.095],[74.32,34.785],[74.6,34.735],[75.24,34.63],[75.375,34.39],[75.385,34.36],[75.495,34.235],[75.595,34.2],[76.02,34],[76.775,33.25],[77.275,32.875]]]},"properties":{"st_code":"38","st_nm":"Ladakh"}},
{"type":"Feature","geometry":{"type":"Polygon","coordinates":[[[74.6,34.735],[74.32,34.785],[74.145,35.095],[73.75,34.785],[73.39,34.375],[73.49,34.145],[73.6,33.715],[73.565,33.34],[73.69,33.085],[74.445,32.79],[74.89,32.52],[75.205,32.42],[75.34,32.345],[75.835,32.51],[75.8,32.885],[76.22,33.02],[76.41,33.185],[76.75,33.18],[76.775,33.25],[76.02,34],[75.595,34.2],[75.495,34.235],[75.385,34.36],[75.375,34.39],[75.24,34.63],[74.6,34.735]]]},"properties":{"st_code":"01","st_nm":"Jammu and Kashmir"}},
{"type":"Feature","geometry":{"type":"Polygon","coordinates":[[[78.675,32.08],[78.4,32.525],[78.015,32.62],[77.74,32.97],[77.275,32.875],[76.775,33.25],[76.75,33.18],[76.41,33.185],[76.22,33.02],[75.8,32.885],[75.835,32.51],[75.93,32.395],[75.6,32.095],[75.6,32.08],[75.96,31.855],[76.29,31.305],[76.39,31.415],[76.645,31.21],[76.735,30.935],[76.775,30.905],[77.025,30.75],[77.125,30.565],[77.21,30.49],[77.58,30.38],[77.575,30.4],[77.705,30.765],[77.83,31.03],[78.31,31.285],[78.88,31.285],[78.675,32.08]]]},"properties":{"st_code":"02","st_nm":"Himachal Pradesh"}},
{"type":"Feature","geometry":{"type":"Polygon","coordinates":[[[75.835,32.51],[75.34,32.345],[75.38,32.185],[74.915,32.045],[74.505,31.74],[74.61,31.5],[74.51,31.135],[74.71,31.07],[74.215,30.69],[73.88,30.36],[73.97,30.195],[74.3,29.955],[74.45,29.945],[74.525,29.94],[74.705,29.975],[75.19,29.845],[75.305,29.56],[75.46,29.805],[75.72,29.815],[75.945,29.73],[76.1,29.81],[76.215,29.84],[76.465,30.1],[76.645,30.15],[76.75,30.43],[76.905,30.46],[76.83,30.68],[76.74,30.695],[76.71,30.76],[76.84,30.755],[76.775,30.905],[76.735,30.935],[76.645,31.21],[76.39,31.415],[76.29,31.305],[75.96,31.855],[75.6,32.08],[75.6,32.095],[75.93,32.395],[75.835,32.51]]]},"properties":{"st_code":"03","st_nm":"Punjab"}},
{"type":"Feature","geometry":{"type":"Polygon","coordinates":[[[79.405,31.075],[79.07,31.455],[78.88,31.285],[78.31,31.285],[77.83,31.03],[77.705,30.765],[77.575,30.4],[77.96,30.24],[77.715,29.885],[77.82,29.675],[78.02,29.58],[78.335,29.8],[78.925,29.44],[78.85,29.35],[78.76,29.265],[78.975,29.13],[79.425,28.895],[79.685,28.855],[80.065,28.835],[80.075,28.94],[80.32,29.3],[80.24,29.445],[80.365,29.74],[80.93,30.175],[80.61,30.47],[80.215,30.585],[80.1,30.79],[79.405,31.075]]]},"properties":{"st_code":"05","st_nm":"Uttarakhand"}},
{"type":"Feature","geometry":{"type":"Polygon","coordinates":[[[76.83,30.68],[76.84,30.755],[76.71,30.76],[76.74,30.695],[76.83,30.68]]]},"properties":{"st_code":"04","st_nm":"Chandigarh"}}
]}